IRIDIUM 171             
1 43929U 19002H   24123.61446987  .00000064  00000+0  15927-4 0  9993
2 43929  86.3947 317.9319 0001934  91.8940 268.2477 14.34215856277794
IRIDIUM 170             
1 43930U 19002J   24123.58570763  .00000475  00000+0  71443-4 0  9992
2 43930  86.6066 317.7716 0002308  87.2815 272.8666 14.72237401285147
IRIDIUM 167             
1 43931U 19002K   24123.60812708  .00000109  00000+0  31734-4 0  9997
2 43931  86.3938 317.7296 0002124  89.9250 270.2189 14.34216297277796
IRIDIUM 181             
1 56726U 23068S   24123.63550419  .00000058  00000+0  11199-4 0  9997
2 56726  86.8680   9.2205 0002028  85.3940 274.7493 14.43599748 50569
IRIDIUM 177             
1 56727U 23068T   24123.59418994  .00001727  00000+0  22381-3 0  9992
2 56727  86.1972 337.0198 0001934  96.7411 263.4030 14.80226137 51635
IRIDIUM 174             
1 56728U 23068U   24123.58871667  .00001782  00000+0  23104-3 0  9997
2 56728  86.1980 337.1223 0002478  83.1040 277.0463 14.80220560 51632
IRIDIUM 178             
1 56729U 23068V   24123.58336126  .00001690  00000+0  21900-3 0  9994
2 56729  86.5802 352.4225 0003034  81.9040 278.2525 14.80225523 51633
IRIDIUM 179             
1 56730U 23068W   24123.57786744  .00001685  00000+0  21825-3 0  9990
2 56730  86.6818 355.9826 0002730  85.1678 274.9855 14.80235764 51630
